HERMES-1                
1 63242U 25052AJ  26068.69342910  .00006601  00000+0  30413-3 0  9993
2 63242  97.4020 322.1122 0007734 159.5432 200.6114 15.20586525 54679
PIAST-S1                
1 66749U 25276CM  26068.72201852  .00007004  00000+0  33677-3 0  9992
2 66749  97.4262 144.0248 0001469 354.6822   5.4397 15.19110879 15328
